NORAD_CAT_ID,OBJECT_NAME,OBJECT_TYPE,EPOCH,MEAN_MOTION,ECCENTRICITY,INCLINATION,RA_OF_ASC_NODE,ARG_OF_PERICENTER,MEAN_ANOMALY,BSTAR,MEAN_MOTION_DOT,MEAN_MOTION_DDOT,TLE_LINE0,TLE_LINE1,TLE_LINE2,SEMIMAJOR_AXIS,PERIOD,APOGEE,PERIGEE,DECAYED
53568.0,STARLINK-4583,PAYLOAD,2023-05-17 21:07:07,15.08839152,0.000108,53.2159,343.5232,89.7092,270.4024,5.6901e-05,6.18e-06,0.0,0 STARLINK-4583,1 53568U 22101AT  23137.87994512  .00000618  00000-0  56901-4 0  9994,2 53568  53.2159 343.5232 0001080  89.7092 270.4024 15.08839152 42120,6917.883,95.438,540.495,539.001,0.0
53568.0,STARLINK-4583,PAYLOAD,2023-05-18 00:17:53,15.08843516,9.86e-05,53.2159,342.9263,87.084,273.0265,8.3799e-05,1.046e-05,0.0,0 STARLINK-4583,1 53568U 22101AT  23138.01242131  .00001046  00000-0  83799-4 0  9995,2 53568  53.2159 342.9263 0000986  87.0840 273.0265 15.08843516 41453,6917.87,95.437,540.417,539.053,0.0
53568.0,STARLINK-4583,PAYLOAD,2023-05-18 20:57:54,15.0885194,0.0001378,53.216,339.0595,103.265,256.8496,-0.00013943,-2.507e-05,0.0,0 STARLINK-4583,1 53568U 22101AT  23138.87354253 -.00002507  00000-0 -13943-3 0  9996,2 53568  53.2160 339.0595 0001378 103.2650 256.8496 15.08851940 42272,6917.844,95.437,540.662,538.756,0.0
53568.0,STARLINK-4583,PAYLOAD,2023-05-19 06:30:13,15.08833023,0.0001272,53.2173,337.2743,81.6923,278.4214,0.00016545,2.346e-05,0.0,0 STARLINK-4583,1 53568U 22101AT  23139.27098826  .00002346  00000-0  16545-3 0  9992,2 53568  53.2173 337.2743 0001272  81.6923 278.4214 15.08833023 41646,6917.902,95.438,540.647,538.887,0.0
53568.0,STARLINK-4583,PAYLOAD,2023-05-19 16:02:31,15.08842641,0.0001189,53.217,335.49,90.4689,269.6439,5.1494e-05,5.32e-06,0.0,0 STARLINK-4583,1 53568U 22101AT  23139.66842444  .00000532  00000-0  51494-4 0  9996,2 53568  53.2170 335.4900 0001189  90.4689 269.6439 15.08842641 41706,6917.872,95.437,540.56,538.915,0.0
53568.0,STARLINK-4583,PAYLOAD,2023-05-19 20:48:40,15.08846312,0.0001152,53.217,334.5979,91.0004,269.112,7.6513e-05,9.3e-06,0.0,0 STARLINK-4583,1 53568U 22101AT  23139.86714080  .00000930  00000-0  76513-4 0  9993,2 53568  53.2170 334.5979 0001152  91.0004 269.1120 15.08846312 42421,6917.861,95.437,540.523,538.929,0.0
53568.0,STARLINK-4583,PAYLOAD,2023-05-20 19:04:04,15.08848664,0.0001092,53.2157,330.4382,86.7138,273.3979,0.0001133,1.516e-05,0.0,0 STARLINK-4583,1 53568U 22101AT  23140.79449669  .00001516  00000-0  11330-3 0  9991,2 53568  53.2157 330.4382 0001092  86.7138 273.3979 15.08848664 41870,6917.854,95.437,540.474,538.963,0.0
53568.0,STARLINK-4583,PAYLOAD,2023-05-21 06:11:47,15.08840748,0.0001097,53.2157,328.3552,76.7804,283.3311,4.5677e-05,4.39e-06,0.0,0 STARLINK-4583,1 53568U 22101AT  23141.25818315  .00000439  00000-0  45677-4 0  9996,2 53568  53.2157 328.3552 0001097  76.7804 283.3311 15.08840748 41943,6917.878,95.438,540.502,538.984,0.0
53568.0,STARLINK-4583,PAYLOAD,2023-05-21 18:54:53,15.08826747,0.000115,53.2159,325.9765,77.462,282.65,-6.6303e-05,-1.342e-05,0.0,0 STARLINK-4583,1 53568U 22101AT  23141.78811814 -.00001342  00000-0 -66303-4 0  9996,2 53568  53.2159 325.9765 0001150  77.4620 282.6500 15.08826747 42023,6917.921,95.438,540.581,538.99,0.0
53568.0,STARLINK-4583,PAYLOAD,2023-05-21 22:05:39,15.08830632,0.0001094,53.2157,325.3817,82.7853,277.3263,-5.828e-05,-1.215e-05,0.0,0 STARLINK-4583,1 53568U 22101AT  23141.92059607 -.00001215  00000-0 -58280-4 0  9990,2 53568  53.2157 325.3817 0001094  82.7853 277.3263 15.08830632 42730,6917.909,95.438,540.531,539.017,0.0
53568.0,STARLINK-4583,PAYLOAD,2023-05-22 18:45:39,15.08851298,0.0001048,53.2153,321.5157,68.9134,291.197,0.00022437,3.286e-05,0.0,0 STARLINK-4583,1 53568U 22101AT  23142.78170371  .00003286  00000-0  22437-3 0  9999,2 53568  53.2153 321.5157 0001048  68.9134 291.1970 15.08851298 42176,6917.846,95.437,540.436,538.986,0.0
53568.0,STARLINK-4583,PAYLOAD,2023-05-23 02:42:35,15.08830965,0.0001141,53.2151,320.0283,77.4539,282.6581,-4.3839e-05,-9.85e-06,0.0,0 STARLINK-4583,1 53568U 22101AT  23143.11291344 -.00000985  00000-0 -43839-4 0  9996,2 53568  53.2151 320.0283 0001141  77.4539 282.6581 15.08830965 42223,6917.908,95.438,540.562,538.984,0.0
53568.0,STARLINK-4583,PAYLOAD,2023-05-23 18:36:26,15.08853027,0.000104,53.2161,317.0546,70.7133,289.3972,0.00058367,9.017e-05,0.0,0 STARLINK-4583,1 53568U 22101AT  23143.77530862  .00009017  00000-0  58367-3 0  9993,2 53568  53.2161 317.0546 0001040  70.7133 289.3972 15.08853027 42329,6917.841,95.437,540.425,538.986,0.0
53568.0,STARLINK-4583,PAYLOAD,2023-05-23 21:47:13,15.08848852,0.0001016,53.2161,316.4604,68.8894,291.2206,0.0011568,0.00018175,0.0,0 STARLINK-4583,1 53568U 22101AT  23143.90778966  .00018175  00000-0  11568-2 0  9993,2 53568  53.2161 316.4604 0001016  68.8894 291.2206 15.08848852 43033,6917.853,95.437,540.421,539.015,0.0
53568.0,STARLINK-4583,PAYLOAD,2023-05-24 02:33:22,15.0883788,0.0001244,53.216,315.568,62.6575,297.4544,0.00058691,9.065e-05,0.0,0 STARLINK-4583,1 53568U 22101AT  23144.10651252  .00009065  00000-0  58691-3 0  9991,2 53568  53.2160 315.5680 0001244  62.6575 297.4544 15.08837880 42375,6917.887,95.438,540.612,538.891,0.0
53568.0,STARLINK-4583,PAYLOAD,2023-05-24 15:16:27,15.08848232,0.0001043,53.2159,313.1888,83.7058,276.4053,0.00064394,9.978e-05,0.0,0 STARLINK-4583,1 53568U 22101AT  23144.63643083  .00009978  00000-0  64394-3 0  9992,2 53568  53.2159 313.1888 0001043  83.7058 276.4053 15.08848232 43145,6917.855,95.437,540.442,538.999,0.0
53568.0,STARLINK-4583,PAYLOAD,2023-05-25 18:18:01,15.08843502,9.81e-05,53.2156,308.134,82.8805,277.2298,0.00037757,5.727e-05,0.0,0 STARLINK-4583,1 53568U 22101AT  23145.76251245  .00005727  00000-0  37757-3 0  9993,2 53568  53.2156 308.1340 0000981  82.8805 277.2298 15.08843502 42626,6917.87,95.437,540.413,539.056,0.0
53568.0,STARLINK-4583,PAYLOAD,2023-05-25 19:53:24,15.08846447,9.99e-05,53.2155,307.8365,83.6488,276.4618,0.00039467,6e-05,0.0,0 STARLINK-4583,1 53568U 22101AT  23145.82875172  .00006000  00000-0  39467-3 0  9996,2 53568  53.2155 307.8365 0000999  83.6488 276.4618 15.08846447 43329,6917.861,95.437,540.417,539.035,0.0
53568.0,STARLINK-4583,PAYLOAD,2023-05-26 18:08:48,15.08838967,0.0001205,53.216,303.6713,82.9144,277.1985,0.00043172,6.589e-05,0.0,0 STARLINK-4583,1 53568U 22101AT  23146.75611642  .00006589  00000-0  43172-3 0  9999,2 53568  53.2160 303.6713 0001205  82.9144 277.1985 15.08838967 42779,6917.884,95.438,540.582,538.915,0.0
53568.0,STARLINK-4583,PAYLOAD,2023-05-26 19:44:11,15.08841002,0.0001206,53.216,303.374,83.7586,276.3544,0.00037312,5.655e-05,0.0,0 STARLINK-4583,1 53568U 22101AT  23146.82235497  .00005655  00000-0  37312-3 0  9999,2 53568  53.2160 303.3740 0001206  83.7586 276.3544 15.08841002 43470,6917.877,95.437,540.577,538.908,0.0
53568.0,STARLINK-4583,PAYLOAD,2023-05-27 16:24:12,15.088426,0.0001022,53.2152,299.5094,98.866,261.2448,8.2988e-05,1.033e-05,0.0,0 STARLINK-4583,1 53568U 22101AT  23147.68347294  .00001033  00000-0  82988-4 0  9999,2 53568  53.2152 299.5094 0001022  98.8660 261.2448 15.08842600 43601,6917.872,95.437,540.444,539.03,0.0
53568.0,STARLINK-4583,PAYLOAD,2023-05-28 16:14:58,15.08848041,9.54e-05,53.2162,295.0491,95.5729,264.5372,8.2187e-05,1.021e-05,0.0,0 STARLINK-4583,1 53568U 22101AT  23148.67706937  .00001021  00000-0  82187-4 0  9990,2 53568  53.2162 295.0491 0000954  95.5729 264.5372 15.08848041 43750,6917.856,95.437,540.381,539.061,0.0
53568.0,STARLINK-4583,PAYLOAD,2023-05-29 14:30:22,15.08842014,9.31e-05,53.2162,290.8862,92.5089,267.601,9.5989e-05,1.24e-05,0.0,0 STARLINK-4583,1 53568U 22101AT  23149.60443107  .00001240  00000-0  95989-4 0  9998,2 53568  53.2162 290.8862 0000931  92.5089 267.6010 15.08842014 43898,6917.874,95.437,540.383,539.095,0.0
53568.0,STARLINK-4583,PAYLOAD,2023-05-29 19:16:32,15.08845687,9.2e-05,53.2163,289.9939,91.9463,268.1634,8.5579e-05,1.075e-05,0.0,0 STARLINK-4583,1 53568U 22101AT  23149.80314827  .00001075  00000-0  85579-4 0  9996,2 53568  53.2163 289.9939 0000920  91.9463 268.1634 15.08845687 43921,6917.863,95.437,540.364,539.092,0.0
53568.0,STARLINK-4583,PAYLOAD,2023-05-30 09:35:00,15.08838206,0.0001116,53.2166,287.3147,102.3217,257.79,-2.6557e-06,-3.3e-06,0.0,0 STARLINK-4583,1 53568U 22101AT  23150.39931509 -.00000330  00000-0 -26557-5 0  9991,2 53568  53.2166 287.3147 0001116 102.3217 257.7900 15.08838206 43322,6917.886,95.438,540.523,538.979,0.0
53568.0,STARLINK-4583,PAYLOAD,2023-05-30 12:45:46,15.0884026,0.0001122,53.2165,286.72,101.779,258.3328,1.0348e-05,-1.23e-06,0.0,0 STARLINK-4583,1 53568U 22101AT  23150.53179332 -.00000123  00000-0  10348-4 0  9994,2 53568  53.2165 286.7200 0001122 101.7790 258.3328 15.08840260 44033,6917.88,95.438,540.521,538.968,0.0
53568.0,STARLINK-4583,PAYLOAD,2023-05-30 14:21:10,15.08840534,0.000111,53.2166,286.4226,101.7121,258.3995,5.2294e-06,-2.05e-06,0.0,0 STARLINK-4583,1 53568U 22101AT  23150.59803304 -.00000205  00000-0  52294-5 0  9991,2 53568  53.2166 286.4226 0001110 101.7121 258.3995 15.08840534 44049,6917.879,95.438,540.512,538.976,0.0
53568.0,STARLINK-4583,PAYLOAD,2023-05-31 14:11:56,15.08840982,0.0001059,53.2165,281.9624,95.3529,264.7584,8.779e-05,1.11e-05,0.0,0 STARLINK-4583,1 53568U 22101AT  23151.59163172  .00001110  00000-0  87790-4 0  9997,2 53568  53.2165 281.9624 0001059  95.3529 264.7584 15.08840982 44190,6917.877,95.437,540.475,539.01,0.0
53568.0,STARLINK-4583,PAYLOAD,2023-05-31 15:47:19,15.08848461,0.0001141,53.2158,281.6706,115.8832,244.2278,1.4098e-05,-6.3e-07,0.0,0 STARLINK-4583,1 53568U 22101AT  23151.65786922 -.00000063  00000-0  14098-4 0  9996,2 53568  53.2158 281.6706 0001141 115.8832 244.2278 15.08848461 43515,6917.855,95.437,540.509,538.93,0.0
53568.0,STARLINK-4583,PAYLOAD,2023-06-01 01:19:39,15.08836452,9.45e-05,53.2154,279.8872,109.7011,250.4083,8.6834e-05,1.094e-05,0.0,0 STARLINK-4583,1 53568U 22101AT  23152.05531525  .00001094  00000-0  86834-4 0  9999,2 53568  53.2154 279.8872 0000945 109.7011 250.4083 15.08836452 43572,6917.891,95.438,540.41,539.102,0.0
